IRIDIUM 26              
1 24903U 97043A   25237.95081611  .00000312  00000+0  98140-4 0  9992
2 24903  86.3899  81.2988 0002032  93.6138 266.5292 14.37187937466767
IRIDIUM 22              
1 24907U 97043E   25237.93840561  .00000297  00000+0  95542-4 0  9996
2 24907  86.3905  84.9067 0002189  90.8473 269.2975 14.35996165466780
DUMMY MASS 1            
1 24925U 97048A   25237.86422713  .00000350  00000+0  35929-4 0  9991
2 24925  86.3314 103.1117 0004276 254.1334 105.9420 14.87033597515485
DUMMY MASS 2            
1 24926U 97048B   25237.70337783  .00000319  00000+0  32680-4 0  9993
2 24926  86.3317 104.8073 0005012 273.4176  86.6475 14.86785254515236
IRIDIUM 29              
1 24944U 97051A   25237.93638357  .00000343  00000+0  11032-3 0  9997
2 24944  86.3945 114.6489 0002325  82.8188 277.3273 14.36514960463283
IRIDIUM 33              
1 24946U 97051C   25237.92520919  .00000222  00000+0  71307-4 0  9990
2 24946  86.3858 113.9195 0006868 196.2084 163.8893 14.34927914462747
IRIDIUM 28              
1 24948U 97051E   25237.93542639  .00000289  00000+0  90230-4 0  9995
2 24948  86.3944 112.1240 0001860  98.9521 261.1887 14.37425393463864
IRIDIUM 36              
1 24967U 97056C   25237.81822268  .00000313  00000+0  97783-4 0  9995
2 24967  86.4014 143.7759 0002282  91.6210 268.5249 14.37653072462222
